$$SOE
2459580.500000000, A.D. 2022-Jan-01 00:00:00.0000, -2.928621689520561E+08, -3.112902653330716E+07, -2.019979820003728E+07,
2459587.500000000, A.D. 2022-Jan-08 00:00:00.0000, -2.854233986361830E+08, -4.065328372083838E+07, -1.774042877142866E+07,
2459594.500000000, A.D. 2022-Jan-15 00:00:00.0000, -2.774096237409807E+08, -5.009539546861249E+07, -1.524536133796138E+07,
2459601.500000000, A.D. 2022-Jan-22 00:00:00.0000, -2.687972332245786E+08, -5.942912310574566E+07, -1.271744575935813E+07,
2459608.500000000, A.D. 2022-Jan-29 00:00:00.0000, -2.595612938356384E+08, -6.862465593756241E+07, -1.016008765283579E+07,
2459615.500000000, A.D. 2022-Feb-05 00:00:00.0000, -2.496755717545338E+08, -7.764800116958036E+07, -7.577365216615047E+06,
2459622.500000000, A.D. 2022-Feb-12 00:00:00.0000, -2.391126053245677E+08, -8.646025804255164E+07, -4.974173135442041E+06,
2459629.500000000, A.D. 2022-Feb-19 00:00:00.0000, -2.278438558723422E+08, -9.501675112708987E+07, -2.356399818765558E+06,
2459636.500000000, A.D. 2022-Feb-26 00:00:00.0000, -2.158399744747913E+08, -1.032659977449711E+08, 2.688539735810757E+05,
2459643.500000000, A.D. 2022-Mar-05 00:00:00.0000, -2.030712364169846E+08, -1.111484822159265E+08, 2.893005152228221E+06,
2459650.500000000, A.D. 2022-Mar-12 00:00:00.0000, -1.895082165623526E+08, -1.185952091875852E+08, 5.505655141977072E+06,
2459657.500000000, A.D. 2022-Mar-19 00:00:00.0000, -1.751228088149144E+08, -1.255260131067318E+08, 8.094180038893573E+06,
2459664.500000000, A.D. 2022-Mar-26 00:00:00.0000, -1.598897333363887E+08, -1.318476150845057E+08, 1.064322968055745E+07,
2459671.500000000, A.D. 2022-Apr-02 00:00:00.0000, -1.437887282807519E+08, -1.374514496005294E+08, 1.313412236765093E+07,
2459678.500000000, A.D. 2022-Apr-09 00:00:00.0000, -1.268076888807225E+08, -1.422113442764387E+08, 1.554412746455370E+07,
2459685.500000000, A.D. 2022-Apr-16 00:00:00.0000, -1.089470913298995E+08, -1.459812454392927E+08, 1.784564220580342E+07,
2459692.500000000, A.D. 2022-Apr-23 00:00:00.0000, -9.022610632059366E+07, -1.485933690691203E+08, 2.000529875146675E+07,
2459699.500000000, A.D. 2022-Apr-30 00:00:00.0000, -7.069082179566610E+07, -1.498574588923235E+08, 2.198309258310619E+07,
2459706.500000000, A.D. 2022-May-07 00:00:00.0000, -5.042486415528806E+07, -1.495622710812617E+08, 2.373171680884546E+07,
2459713.500000000, A.D. 2022-May-14 00:00:00.0000, -2.956228876248181E+07, -1.474809588388757E+08, 2.519643033424073E+07,
2459720.500000000, A.D. 2022-May-21 00:00:00.0000, -8.301676008224477E+06, -1.433825640528407E+08, 2.631597158153100E+07,
2459727.500000000, A.D. 2022-May-28 00:00:00.0000, 1.308129140927635E+07, -1.370519187614849E+08, 2.702519432803304E+07,
2459734.500000000, A.D. 2022-Jun-04 00:00:00.0000, 3.422777051840774E+07, -1.283191449821754E+08, 2.726009480064149E+07,
2459741.500000000, A.D. 2022-Jun-11 00:00:00.0000, 5.470317806594906E+07, -1.170967148789232E+08, 2.696546512222148E+07,
2459748.500000000, A.D. 2022-Jun-18 00:00:00.0000, 7.402456344345751E+07, -1.034166067876712E+08, 2.610434130589150E+07,
2459755.500000000, A.D. 2022-Jun-25 00:00:00.0000, 9.170906064121513E+07, -8.745472240726893E+07, 2.466692421891435E+07,
2459762.500000000, A.D. 2022-Jul-02 00:00:00.0000, 1.073345468230162E+08, -6.952924970429714E+07, 2.267567095335342E+07,
2459769.500000000, A.D. 2022-Jul-09 00:00:00.0000, 1.205945136980392E+08, -5.006781185850576E+07, 2.018398106506285E+07,
2459776.500000000, A.D. 2022-Jul-16 00:00:00.0000, 1.313288642055075E+08, -2.955199609997215E+07, 1.726847149409783E+07,
2459783.500000000, A.D. 2022-Jul-23 00:00:00.0000, 1.395228846372931E+08, -8.457691004903816E+06, 1.401762787627101E+07,
2459790.500000000, A.D. 2022-Jul-30 00:00:00.0000, 1.452805173031952E+08, 1.279137600588368E+07, 1.052065827798588E+07,
2459797.500000000, A.D. 2022-Aug-06 00:00:00.0000, 1.487857846250705E+08, 3.384888196143486E+07, 6.859295160548717E+06,
2459804.500000000, A.D. 2022-Aug-13 00:00:00.0000, 1.502652032173657E+08, 5.445165611878558E+07, 3.103364254086267E+06,
2459811.500000000, A.D. 2022-Aug-20 00:00:00.0000, 1.499583699451666E+08, 7.441259474744922E+07, -6.904972771539316E+05,
2459818.500000000, A.D. 2022-Aug-27 00:00:00.0000, 1.480984484354495E+08, 9.360761214121355E+07, -4.478115879066978E+06,
2459825.500000000, A.D. 2022-Sep-03 00:00:00.0000, 1.449011506173927E+08, 1.119614445498591E+08, -8.226083919744670E+06,
2459832.500000000, A.D. 2022-Sep-10 00:00:00.0000, 1.405597962643479E+08, 1.294348642757860E+08, -1.190978697735815E+07,
2459839.500000000, A.D. 2022-Sep-17 00:00:00.0000, 1.352441977191723E+08, 1.460142535068063E+08, -1.551153584283928E+07,
2459846.500000000, A.D. 2022-Sep-24 00:00:00.0000, 1.291016868427906E+08, 1.617035976469006E+08, -1.901896437184753E+07,
2459853.500000000, A.D. 2022-Oct-01 00:00:00.0000, 1.222591768003323E+08, 1.765185719053809E+08, -2.242373027102990E+07,
2459860.500000000, A.D. 2022-Oct-08 00:00:00.0000, 1.148255942095575E+08, 1.904822905612900E+08, -2.572049667080098E+07,
2459867.500000000, A.D. 2022-Oct-15 00:00:00.0000, 1.068943141164570E+08, 2.036223137553251E+08, -2.890615028016954E+07,
2459874.500000000, A.D. 2022-Oct-22 00:00:00.0000, 9.854541372819069E+07, 2.159685742909249E+08, -3.197920887279250E+07,
2459881.500000000, A.D. 2022-Oct-29 00:00:00.0000, 8.984767284786195E+07, 2.275519625637082E+08, -3.493937624878363E+07,
2459888.500000000, A.D. 2022-Nov-05 00:00:00.0000, 8.086030711376072E+07, 2.384033797160862E+08, -3.778720973430465E+07,
2459895.500000000, A.D. 2022-Nov-12 00:00:00.0000, 7.163444546836637E+07, 2.485531204867260E+08, -4.052387236660374E+07,
2459902.500000000, A.D. 2022-Nov-19 00:00:00.0000, 6.221437744259545E+07, 2.580304848867701E+08, -4.315094857909571E+07,
2459909.500000000, A.D. 2022-Nov-26 00:00:00.0000, 5.263860079696508E+07, 2.668635475501826E+08, -4.567030739641494E+07,
2459916.500000000, A.D. 2022-Dec-03 00:00:00.0000, 4.294069937266362E+07, 2.750790349347842E+08, -4.808400111219130E+07,
2459923.500000000, A.D. 2022-Dec-10 00:00:00.0000, 3.315007820073570E+07, 2.827022754688681E+08, -5.039419045372142E+07,
2459930.500000000, A.D. 2022-Dec-17 00:00:00.0000, 2.329257945895503E+07, 2.897571982153730E+08, -5.260308952825292E+07,
2459937.500000000, A.D. 2022-Dec-24 00:00:00.0000, 1.339099945018056E+07, 2.962663629980659E+08, -5.471292556833847E+07,
2459944.500000000, A.D. 2022-Dec-31 00:00:00.0000, 3.465523791684422E+06, 3.022510103240347E+08, -5.672590977939931E+07,
2459951.500000000, A.D. 2023-Jan-07 00:00:00.0000, -6.465905063190555E+06, 3.077311239572150E+08, -5.864421645163337E+07,
2459958.500000000, A.D. 2023-Jan-14 00:00:00.0000, -1.638727834741141E+07, 3.127255010943983E+08, -6.046996804641891E+07,
2459965.500000000, A.D. 2023-Jan-21 00:00:00.0000, -2.628426062859348E+07, 3.172518231998641E+08, -6.220522489795066E+07,
2459972.500000000, A.D. 2023-Jan-28 00:00:00.0000, -3.614396705344363E+07, 3.213267247922629E+08, -6.385197870788320E+07,
2459979.500000000, A.D. 2023-Feb-04 00:00:00.0000, -4.595477191516469E+07, 3.249658615907593E+08, -6.541214868637846E+07,
2459986.500000000, A.D. 2023-Feb-11 00:00:00.0000, -5.570614499253500E+07, 3.281839768024638E+08, -6.688757952085587E+07,
2459993.500000000, A.D. 2023-Feb-18 00:00:00.0000, -6.538851131760823E+07, 3.309949641245701E+08, -6.828004072492012E+07,
2460000.500000000, A.D. 2023-Feb-25 00:00:00.0000, -7.499313046697854E+07, 3.334119269919285E+08, -6.959122702066652E+07,
2460007.500000000, A.D. 2023-Mar-04 00:00:00.0000, -8.451199225462887E+07, 3.354472339815080E+08, -7.082275947221506E+07,
2460014.500000000, A.D. 2023-Mar-11 00:00:00.0000, -9.393772628715675E+07, 3.371125703999209E+08, -7.197618715409654E+07,
2460021.500000000, A.D. 2023-Mar-18 00:00:00.0000, -1.032635232406521E+08, 3.384189861163995E+08, -7.305298919762725E+07,
2460028.500000000, A.D. 2023-Mar-25 00:00:00.0000, -1.124830659040295E+08, 3.393769397587487E+08, -7.405457711289710E+07,
2460035.500000000, A.D. 2023-Apr-01 00:00:00.0000, -1.215904680939967E+08, 3.399963398595294E+08, -7.498229729823226E+07,
2460042.500000000, A.D. 2023-Apr-08 00:00:00.0000, -1.305802208208455E+08, 3.402865843853787E+08, -7.583743350855735E+07,
2460049.500000000, A.D. 2023-Apr-15 00:00:00.0000, -1.394471469989652E+08, 3.402565977549809E+08, -7.662120910427734E+07,
2460056.500000000, A.D. 2023-Apr-22 00:00:00.0000, -1.481863620122561E+08, 3.399148624976978E+08, -7.733478945325148E+07,
2460063.500000000, A.D. 2023-Apr-29 00:00:00.0000, -1.567932366622442E+08, 3.392694480086086E+08, -7.797928452446859E+07,
2460070.500000000, A.D. 2023-May-06 00:00:00.0000, -1.652633636299440E+08, 3.383280383876724E+08, -7.855575135275763E+07,
2460077.500000000, A.D. 2023-May-13 00:00:00.0000, -1.735925278824687E+08, 3.370979586625142E+08, -7.906519634827469E+07,
2460084.500000000, A.D. 2023-May-20 00:00:00.0000, -1.817766803208454E+08, 3.355861990794433E+08, -7.950857750436880E+07,
2460091.500000000, A.D. 2023-May-27 00:00:00.0000, -1.898119140726393E+08, 3.337994375950303E+08, -7.988680651857430E+07,
2460098.500000000, A.D. 2023-Jun-03 00:00:00.0000, -1.976944430249937E+08, 3.317440607436640E+08, -8.020075082696299E+07,
2460105.500000000, A.D. 2023-Jun-10 00:00:00.0000, -2.054205822747346E+08, 3.294261830056558E+08, -8.045123555439149E+07,
2460112.500000000, A.D. 2023-Jun-17 00:00:00.0000, -2.129867301465958E+08, 3.268516647439615E+08, -8.063904539467861E+07,
2460119.500000000, A.D. 2023-Jun-24 00:00:00.0000, -2.203893512330869E+08, 3.240261288838685E+08, -8.076492644774403E+07,
2460126.500000000, A.D. 2023-Jul-01 00:00:00.0000, -2.276249600051095E+08, 3.209549772739125E+08, -8.082958797254415E+07,
2460133.500000000, A.D. 2023-Jul-08 00:00:00.0000, -2.346901064943573E+08, 3.176434076539146E+08, -8.083370383988649E+07,
2460140.500000000, A.D. 2023-Jul-15 00:00:00.0000, -2.415813651690942E+08, 3.140964284983604E+08, -8.077791380452111E+07,
2460147.500000000, A.D. 2023-Jul-22 00:00:00.0000, -2.482953233411754E+08, 3.103188707875742E+08, -8.066282500687800E+07,
$$EOE